[Satellite]
VERSION=1.1
NAME=POLYSAT CP3
NICKNAME=POLYSAT CP3
TLE1=1 31129U 07012N   11059.09592685  .00000022  00000-0  15497-4 0  8089
TLE2=2 31129  97.9115  89.5655 0102529 159.2575 201.2816 14.52382005205008
